[{"OBJECT_NAME":"PATHFINDER 1","OBJECT_ID":"2016-059E","EPOCH":"2026-03-09T22:26:32.347968","MEAN_MOTION":14.67518797,"ECCENTRICITY":0.00289613,"INCLINATION":97.8179,"RA_OF_ASC_NODE":72.6978,"ARG_OF_PERICENTER":160.0111,"MEAN_ANOMALY":200.2236,"EPHEMERIS_TYPE":0,"CLASSIFICATION_TYPE":"U","NORAD_CAT_ID":41787,"ELEMENT_SET_NO":999,"REV_AT_EPOCH":50515,"BSTAR":0.00018125608,"MEAN_MOTION_DOT":9.87e-6,"MEAN_MOTION_DDOT":0},{"OBJECT_NAME":"DELTA 1 DEB","OBJECT_ID":"1975-052BA","EPOCH":"2026-03-09T21:11:35.667744","MEAN_MOTION":14.40100952,"ECCENTRICITY":0.01187068,"INCLINATION":99.9912,"RA_OF_ASC_NODE":37.0728,"ARG_OF_PERICENTER":299.8043,"MEAN_ANOMALY":59.1379,"EPHEMERIS_TYPE":0,"CLASSIFICATION_TYPE":"U","NORAD_CAT_ID":25997,"ELEMENT_SET_NO":999,"REV_AT_EPOCH":65710,"BSTAR":0.0022831626,"MEAN_MOTION_DOT":7.777e-5,"MEAN_MOTION_DDOT":0}]
